{"type": "FeatureCollection", "features": [ {"type": "Feature", "properties": {"norad_id": 42969, "name": "SENTINEL-5P", "group": "resource", "lat": 52.30122452912216, "lon": 113.76429893119578, "alt_km": 821.5448418111391, "timestamp": "2025-12-09T14:52:25.823475+00:00", "meta": {"OBJECT_NAME": "SENTINEL-5P", "OBJECT_ID": "2017-064A", "EPOCH": "2025-12-09T07:30:43.994016", "MEAN_MOTION": 14.19516238, "ECCENTRICITY": 9.564e-05, "INCLINATION": 98.7781, "RA_OF_ASC_NODE": 281.9276, "ARG_OF_PERICENTER": 87.4014, "MEAN_ANOMALY": 272.7271, "EPHEMERIS_TYPE": 0, "CLASSIFICATION_TYPE": "U", "NORAD_CAT_ID": 42969, "ELEMENT_SET_NO": 999, "REV_AT_EPOCH": 42262, "BSTAR": 0.00011029186, "MEAN_MOTION_DOT": 1.88e-06, "MEAN_MOTION_DDOT": 0}, "tle": {"line1": "1 42969U 17064A   25343.31300919  .00000188  00000+0  11029-3 0  9993", "line2": "2 42969  98.7781 281.9276 0000956  87.4014 272.7271 14.19516238422625"}}, "geometry": {"type": "Point", "coordinates": [113.76429893119578, 52.30122452912216]}}, {"type": "Feature", "properties": {"norad_id": 42987, "name": "SKYSAT-C11", "group": "resource", "lat": -65.9586479028429, "lon": -75.93843447333423, "alt_km": 432.563316788287, "timestamp": "2025-12-09T14:52:25.823486+00:00", "meta": {"OBJECT_NAME": "SKYSAT-C11", "OBJECT_ID": "2017-068A", "EPOCH": "2025-12-09T07:36:02.703744", "MEAN_MOTION": 15.47225665, "ECCENTRICITY": 9.276e-05, "INCLINATION": 97.4144, "RA_OF_ASC_NODE": 120.7244, "ARG_OF_PERICENTER": 105.4088, "MEAN_ANOMALY": 254.7264, "EPHEMERIS_TYPE": 0, "CLASSIFICATION_TYPE": "U", "NORAD_CAT_ID": 42987, "ELEMENT_SET_NO": 999, "REV_AT_EPOCH": 45378, "BSTAR": 0.00057576653, "MEAN_MOTION_DOT": 0.0002927, "MEAN_MOTION_DDOT": 0}, "tle": {"line1": "1 42987U 17068A   25343.31669796  .00029270  00000+0  57577-3 0  9999", "line2": "2 42987  97.4144 120.7244 0000927 105.4088 254.7264 15.47225665453785"}}, "geometry": {"type": "Point", "coordinates": [-75.93843447333423, -65.9586479028429]}}, {"type": "Feature", "properties": {"norad_id": 42988, "name": "SKYSAT-C10", "group": "resource", "lat": 39.97919961717176, "lon": -59.258742501013124, "alt_km": 463.70737718732926, "timestamp": "2025-12-09T14:52:25.823497+00:00", "meta": {"OBJECT_NAME": "SKYSAT-C10", "OBJECT_ID": "2017-068B", "EPOCH": "2025-12-09T07:59:47.839776", "MEAN_MOTION": 15.31948454, "ECCENTRICITY": 0.00053281, "INCLINATION": 97.4261, "RA_OF_ASC_NODE": 114.1753, "ARG_OF_PERICENTER": 113.1089, "MEAN_ANOMALY": 247.0714, "EPHEMERIS_TYPE": 0, "CLASSIFICATION_TYPE": "U", "NORAD_CAT_ID": 42988, "ELEMENT_SET_NO": 999, "REV_AT_EPOCH": 45327, "BSTAR": 0.00050153487, "MEAN_MOTION_DOT": 0.00015413, "MEAN_MOTION_DDOT": 0}, "tle": {"line1": "1 42988U 17068B   25343.33319259  .00015413  00000+0  50153-3 0  9995", "line2": "2 42988  97.4261 114.1753 0005328 113.1089 247.0714 15.31948454453275"}}, "geometry": {"type": "Point", "coordinates": [-59.258742501013124, 39.97919961717176]}}, {"type": "Feature", "properties": {"norad_id": 42989, "name": "SKYSAT-C9", "group": "resource", "lat": -56.938681358993456, "lon": 125.39730953328096, "alt_km": 471.93586489435074, "timestamp": "2025-12-09T14:52:25.823508+00:00", "meta": {"OBJECT_NAME": "SKYSAT-C9", "OBJECT_ID": "2017-068C", "EPOCH": "2025-12-09T07:18:25.072704", "MEAN_MOTION": 15.35913994, "ECCENTRICITY": 0.00106956, "INCLINATION": 97.4191, "RA_OF_ASC_NODE": 113.5317, "ARG_OF_PERICENTER": 98.7252, "MEAN_ANOMALY": 261.5203, "EPHEMERIS_TYPE": 0, "CLASSIFICATION_TYPE": "U", "NORAD_CAT_ID": 42989, "ELEMENT_SET_NO": 999, "REV_AT_EPOCH": 45355, "BSTAR": 0.00052451941, "MEAN_MOTION_DOT": 0.00018309, "MEAN_MOTION_DDOT": 0}, "tle": {"line1": "1 42989U 17068C   25343.30445686  .00018309  00000+0  52452-3 0  9998", "line2": "2 42989  97.4191 113.5317 0010695  98.7252 261.5203 15.35913994453550"}}, "geometry": {"type": "Point", "coordinates": [125.39730953328096, -56.938681358993456]}}, {"type": "Feature", "properties": {"norad_id": 42990, "name": "SKYSAT-C8", "group": "resource", "lat": -51.225603101863115, "lon": 122.95417364108077, "alt_km": 473.68358834161063, "timestamp": "2025-12-09T14:52:25.823518+00:00", "meta": {"OBJECT_NAME": "SKYSAT-C8", "OBJECT_ID": "2017-068D", "EPOCH": "2025-12-09T07:15:56.503584", "MEAN_MOTION": 15.32800174, "ECCENTRICITY": 0.00018239, "INCLINATION": 97.4282, "RA_OF_ASC_NODE": 113.2885, "ARG_OF_PERICENTER": 3.1287, "MEAN_ANOMALY": 356.9966, "EPHEMERIS_TYPE": 0, "CLASSIFICATION_TYPE": "U", "NORAD_CAT_ID": 42990, "ELEMENT_SET_NO": 999, "REV_AT_EPOCH": 45318, "BSTAR": 0.00047675498, "MEAN_MOTION_DOT": 0.00015037, "MEAN_MOTION_DDOT": 0}, "tle": {"line1": "1 42990U 17068D   25343.30273731  .00015037  00000+0  47675-3 0  9996", "line2": "2 42990  97.4282 113.2885 0001823   3.1287 356.9966 15.32800174453187"}}, "geometry": {"type": "Point", "coordinates": [122.95417364108077, -51.225603101863115]}}, {"type": "Feature", "properties": {"norad_id": 42991, "name": "SKYSAT-C7", "group": "resource", "lat": 9.359703389785912, "lon": -64.1172079918886, "alt_km": 472.25348347672843, "timestamp": "2025-12-09T14:52:25.823529+00:00", "meta": {"OBJECT_NAME": "SKYSAT-C7", "OBJECT_ID": "2017-068E", "EPOCH": "2025-12-09T07:51:48.807072", "MEAN_MOTION": 15.32208172, "ECCENTRICITY": 0.00077762, "INCLINATION": 97.429, "RA_OF_ASC_NODE": 114.3574, "ARG_OF_PERICENTER": 67.8691, "MEAN_ANOMALY": 292.3376, "EPHEMERIS_TYPE": 0, "CLASSIFICATION_TYPE": "U", "NORAD_CAT_ID": 42991, "ELEMENT_SET_NO": 999, "REV_AT_EPOCH": 45325, "BSTAR": 0.00049179499, "MEAN_MOTION_DOT": 0.00015242, "MEAN_MOTION_DDOT": 0}, "tle": {"line1": "1 42991U 17068E   25343.32764823  .00015242  00000+0  49179-3 0  9995", "line2": "2 42991  97.4290 114.3574 0007776  67.8691 292.3376 15.32208172453259"}}, "geometry": {"type": "Point", "coordinates": [-64.1172079918886, 9.359703389785912]}}, {"type": "Feature", "properties": {"norad_id": 42992, "name": "SKYSAT-C6", "group": "resource", "lat": -62.50131434250596, "lon": 129.6156326430567, "alt_km": 482.1259622551788, "timestamp": "2025-12-09T14:52:25.823539+00:00", "meta": {"OBJECT_NAME": "SKYSAT-C6", "OBJECT_ID": "2017-068F", "EPOCH": "2025-12-09T07:18:34.356384", "MEAN_MOTION": 15.31376364, "ECCENTRICITY": 0.00052304, "INCLINATION": 97.4324, "RA_OF_ASC_NODE": 114.7756, "ARG_OF_PERICENTER": 92.0656, "MEAN_ANOMALY": 268.1184, "EPHEMERIS_TYPE": 0, "CLASSIFICATION_TYPE": "U", "NORAD_CAT_ID": 42992, "ELEMENT_SET_NO": 999, "REV_AT_EPOCH": 45323, "BSTAR": 0.00047898204, "MEAN_MOTION_DOT": 0.00014454, "MEAN_MOTION_DDOT": 0}, "tle": {"line1": "1 42992U 17068F   25343.30456431  .00014454  00000+0  47898-3 0  9997", "line2": "2 42992  97.4324 114.7756 0005230  92.0656 268.1184 15.31376364453232"}}, "geometry": {"type": "Point", "coordinates": [129.6156326430567, -62.50131434250596]}}, {"type": "Feature", "properties": {"norad_id": 43111, "name": "CARTOSAT-2F", "group": "resource", "lat": 0.14577947072534836, "lon": -138.67326218877696, "alt_km": 510.8745470233971, "timestamp": "2025-12-09T14:52:25.823550+00:00", "meta": {"OBJECT_NAME": "CARTOSAT-2F", "OBJECT_ID": "2018-004A", "EPOCH": "2025-12-09T07:45:43.811136", "MEAN_MOTION": 15.19219041, "ECCENTRICITY": 7.179e-05, "INCLINATION": 97.4313, "RA_OF_ASC_NODE": 41.0162, "ARG_OF_PERICENTER": 141.5056, "MEAN_ANOMALY": 218.623, "EPHEMERIS_TYPE": 0, "CLASSIFICATION_TYPE": "U", "NORAD_CAT_ID": 43111, "ELEMENT_SET_NO": 999, "REV_AT_EPOCH": 43850, "BSTAR": 0.00032259826, "MEAN_MOTION_DOT": 6.727e-05, "MEAN_MOTION_DDOT": 0}, "tle": {"line1": "1 43111U 18004A   25343.32342374  .00006727  00000+0  32260-3 0  9995", "line2": "2 43111  97.4313  41.0162 0000717 141.5056 218.6230 15.19219041438505"}}, "geometry": {"type": "Point", "coordinates": [-138.67326218877696, 0.14577947072534836]}}, {"type": "Feature", "properties": {"norad_id": 43259, "name": "GAOFEN-1 02", "group": "resource", "lat": 64.61683602894428, "lon": 23.98463877112756, "alt_km": 635.1104625519074, "timestamp": "2025-12-09T14:52:25.823560+00:00", "meta": {"OBJECT_NAME": "GAOFEN-1 02", "OBJECT_ID": "2018-031A", "EPOCH": "2025-12-09T08:04:14.298240", "MEAN_MOTION": 14.76470488, "ECCENTRICITY": 0.00014279, "INCLINATION": 98.0806, "RA_OF_ASC_NODE": 41.1243, "ARG_OF_PERICENTER": 225.1818, "MEAN_ANOMALY": 134.9276, "EPHEMERIS_TYPE": 0, "CLASSIFICATION_TYPE": "U", "NORAD_CAT_ID": 43259, "ELEMENT_SET_NO": 999, "REV_AT_EPOCH": 41468, "BSTAR": 0.00026954654, "MEAN_MOTION_DOT": 1.824e-05, "MEAN_MOTION_DDOT": 0}, "tle": {"line1": "1 43259U 18031A   25343.33627660  .00001824  00000+0  26955-3 0  9990", "line2": "2 43259  98.0806  41.1243 0001427 225.1818 134.9276 14.76470488414686"}}, "geometry": {"type": "Point", "coordinates": [23.98463877112756, 64.61683602894428]}}, {"type": "Feature", "properties": {"norad_id": 43260, "name": "GAOFEN-1 03", "group": "resource", "lat": -1.4890554280204993, "lon": -138.9265960844941, "alt_km": 645.2300835615215, "timestamp": "2025-12-09T14:52:25.823570+00:00", "meta": {"OBJECT_NAME": "GAOFEN-1 03", "OBJECT_ID": "2018-031B", "EPOCH": "2025-12-09T07:32:55.201056", "MEAN_MOTION": 14.76426661, "ECCENTRICITY": 0.00022131, "INCLINATION": 98.0803, "RA_OF_ASC_NODE": 40.9797, "ARG_OF_PERICENTER": 337.0066, "MEAN_ANOMALY": 23.1044, "EPHEMERIS_TYPE": 0, "CLASSIFICATION_TYPE": "U", "NORAD_CAT_ID": 43260, "ELEMENT_SET_NO": 999, "REV_AT_EPOCH": 41467, "BSTAR": 0.00025865084, "MEAN_MOTION_DOT": 1.747e-05, "MEAN_MOTION_DDOT": 0}, "tle": {"line1": "1 43260U 18031B   25343.31452779  .00001747  00000+0  25865-3 0  9990", "line2": "2 43260  98.0803  40.9797 0002213 337.0066  23.1044 14.76426661414673"}}, "geometry": {"type": "Point", "coordinates": [-138.9265960844941, -1.4890554280204993]}}]}